OBJECT_NAME,OBJECT_ID,EPOCH,MEAN_MOTION,ECCENTRICITY,INCLINATION,RA_OF_ASC_NODE,ARG_OF_PERICENTER,MEAN_ANOMALY,EPHEMERIS_TYPE,CLASSIFICATION_TYPE,NORAD_CAT_ID,ELEMENT_SET_NO,REV_AT_EPOCH,BSTAR,MEAN_MOTION_DOT,MEAN_MOTION_DDOT,RMS,DATA_SOURCE
STARLINK-30181,2023-105Q,2025-10-07T19:06:41.999962,15.02562638,0.0001404,43.0039,12.2589,263.3196,89.295,0,C,57444,280,1,-0.0020339,-0.00027564,0,0.423,SpaceX-E
STARLINK-30215,2023-105R,2025-10-07T19:07:42.000010,15.02527054,0.0001654,43.0044,12.3133,268.2056,64.1501,0,C,57445,280,1,0.0010399,0.00014095,0,0.238,SpaceX-E
STARLINK-30162,2023-105S,2025-10-07T19:05:42.000000,15.02525264,0.0001393,43.0033,359.4869,270.1063,95.2065,0,C,57446,280,1,0.00087951,0.0001192,0,0.249,SpaceX-E
STARLINK-30178,2023-105T,2025-10-07T19:07:42.000010,15.02534133,0.0001417,43.0039,12.2982,276.0193,62.3238,0,C,57447,280,1,0.0010224,0.00013861,0,0.245,SpaceX-E
STARLINK-30196,2023-105U,2025-10-07T19:09:42.000019,15.02557166,0.0001527,43.0034,12.1598,262.3122,137.6498,0,C,57448,280,1,-0.00034946,-4.7382e-05,0,0.317,SpaceX-E
STARLINK-30225,2023-105V,2025-10-07T19:05:42.000000,15.02566984,0.000133,43.0043,12.1328,263.1683,139.7649,0,C,57449,280,1,-0.0021749,-0.00029477,0,0.45,SpaceX-E
STARLINK-30217,2023-105W,2025-10-07T19:03:41.999990,15.02562117,0.0001364,43.0035,359.33,265.3218,182.5816,0,C,57450,280,1,-0.0022644,-0.00030685,0,0.506,SpaceX-E
STARLINK-30216,2023-105X,2025-10-07T19:07:42.000010,15.02522576,0.0001331,43.0043,12.0977,276.875,151.6345,0,C,57451,280,1,0.001127,0.00015274,0,0.243,SpaceX-E
STARLINK-30165,2023-107A,2025-10-07T19:04:42.000038,15.02513937,0.0001464,43.0018,90.0212,268.146,355.4953,0,C,57457,280,1,0.00077089,0.00010445,0,0.265,SpaceX-E
STARLINK-30140,2023-107B,2025-10-07T19:07:42.000010,15.02510407,0.0001398,43.0018,89.9659,269.018,23.9603,0,C,57458,280,1,0.00075416,0.00010217,0,0.266,SpaceX-E
STARLINK-30185,2023-107C,2025-10-07T19:03:41.999990,15.02538931,0.000147,43.0022,89.9396,262.8442,33.1064,0,C,57459,280,1,-0.00027009,-3.6604e-05,0,0.323,SpaceX-E
STARLINK-30077,2023-107D,2025-10-07T19:04:42.000038,15.02528612,0.0001518,43.002,89.8904,266.8036,50.9336,0,C,57460,280,1,0.00058274,7.8979e-05,0,0.257,SpaceX-E
STARLINK-30229,2023-107E,2025-10-07T18:50:41.999971,15.02554975,0.0001587,43.0021,90.1114,265.0914,287.9241,0,C,57461,280,1,-0.0021989,-0.00029793,0,0.625,SpaceX-E
STARLINK-30088,2023-107F,2025-10-07T19:07:42.000010,15.02538898,0.0001477,43.0015,89.8323,262.4761,84.573,0,C,57462,280,1,-0.00016872,-2.2867e-05,0,0.336,SpaceX-E
STARLINK-30091,2023-107G,2025-10-07T19:03:41.999990,15.02530084,0.0001368,43.0019,89.7636,268.4105,99.6887,0,C,57463,280,1,-0.00012311,-1.6682e-05,0,0.296,SpaceX-E
STARLINK-30116,2023-107J,2025-10-07T19:10:41.999981,15.02545761,0.0001403,43.0017,89.7529,264.3248,124.0631,0,C,57465,280,1,-0.00063532,-8.6106e-05,0,0.338,SpaceX-E
STARLINK-30092,2023-107L,2025-10-07T19:08:41.999971,15.02555788,0.0001652,43.0016,89.6576,241.5447,181.3423,0,C,57467,280,1,-0.00068593,-9.299e-05,0,0.335,SpaceX-E
STARLINK-30039,2023-107M,2025-10-07T19:00:42.000019,15.02518214,0.0001555,43.0017,89.6448,276.2899,134.5257,0,C,57468,280,1,0.00074926,0.00010153,0,0.263,SpaceX-E
STARLINK-30171,2023-107N,2025-10-07T19:10:41.999981,15.02577027,0.0001175,43.0018,89.5232,274.4604,210.0283,0,C,57469,280,1,-0.0017008,-0.00023061,0,0.444,SpaceX-E
STARLINK-30186,2023-107P,2025-10-07T19:09:42.000019,15.02529686,0.0001558,43.0019,89.569,261.0081,201.6972,0,C,57470,280,1,0.00072773,9.8637e-05,0,0.263,SpaceX-E
STARLINK-30190,2023-107Q,2025-10-07T19:30:41.999990,15.52232419,0.0035034,42.9837,46.295,338.5246,46.6188,0,C,57471,280,1,0.0071555,0.0046674,0,0.267,SpaceX-E
STARLINK-30204,2023-107R,2025-10-07T19:07:42.000010,15.02533664,0.0001356,43.0015,89.487,267.0711,224.2314,0,C,57472,280,1,0.00041072,5.5669e-05,0,0.257,SpaceX-E
STARLINK-30187,2023-107S,2025-10-07T19:03:41.999990,15.02538116,0.0001369,43.0016,89.4514,265.4791,228.7146,0,C,57473,280,1,0.00079055,0.00010718,0,0.262,SpaceX-E
STARLINK-30110,2023-107T,2025-10-07T19:29:42.000029,15.33214059,0.002817,42.9979,48.6073,323.7472,276.2428,0,C,57474,280,1,0.0055052,0.0018448,0,0.256,SpaceX-E
STARLINK-30155,2023-107U,2025-10-07T19:03:41.999990,15.02522872,0.0001576,43.002,89.3316,273.482,274.8856,0,C,57475,280,1,0.00073196,9.9193e-05,0,0.262,SpaceX-E
STARLINK-30161,2023-107V,2025-10-07T19:01:41.999981,15.02537686,0.0001462,43.0021,89.2971,261.9417,296.9652,0,C,57476,280,1,-0.00021846,-2.9607e-05,0,0.318,SpaceX-E
STARLINK-30176,2023-107W,2025-10-07T18:35:42.000029,15.02537918,0.0001432,43.0022,89.3661,262.3374,210.8178,0,C,57477,280,1,-0.00024778,-3.358e-05,0,0.324,SpaceX-E
STARLINK-30154,2023-113A,2025-10-07T19:09:42.000019,15.0252959,0.0001356,43.001,128.4596,263.7479,221.1665,0,C,57495,280,1,0.00080299,0.00010884,0,0.264,SpaceX-E
STARLINK-30145,2023-113B,2025-10-07T19:07:42.000010,15.02540226,0.000133,43.0009,128.265,259.9815,307.6696,0,C,57496,280,1,-0.00015828,-2.1453e-05,0,0.317,SpaceX-E
