STARLINK-30181          
1 57444C 23105Q   25280.79631944 -.00027564  00000+0 -20339-2 0  2802
2 57444  43.0039  12.2589 0001404 263.3196  89.2950 15.02562638    13
STARLINK-30215          
1 57445C 23105R   25280.79701389  .00014095  00000+0  10399-2 0  2802
2 57445  43.0044  12.3133 0001654 268.2056  64.1501 15.02527054    19
STARLINK-30162          
1 57446C 23105S   25280.79562500  .00011920  00000+0  87951-3 0  2806
2 57446  43.0033 359.4869 0001393 270.1063  95.2065 15.02525264    10
STARLINK-30178          
1 57447C 23105T   25280.79701389  .00013861  00000+0  10224-2 0  2801
2 57447  43.0039  12.2982 0001417 276.0193  62.3238 15.02534133    15
STARLINK-30196          
1 57448C 23105U   25280.79840278 -.00004738  00000+0 -34946-3 0  2806
2 57448  43.0034  12.1598 0001527 262.3122 137.6498 15.02557166    10
STARLINK-30225          
1 57449C 23105V   25280.79562500 -.00029477  00000+0 -21749-2 0  2809
2 57449  43.0043  12.1328 0001330 263.1683 139.7649 15.02566984    14
STARLINK-30217          
1 57450C 23105W   25280.79423611 -.00030685  00000+0 -22644-2 0  2808
2 57450  43.0035 359.3300 0001364 265.3218 182.5816 15.02562117    14
STARLINK-30216          
1 57451C 23105X   25280.79701389  .00015274  00000+0  11270-2 0  2808
2 57451  43.0043  12.0977 0001331 276.8750 151.6345 15.02522576    18
STARLINK-30165          
1 57457C 23107A   25280.79493056  .00010445  00000+0  77089-3 0  2801
2 57457  43.0018  90.0212 0001464 268.1460 355.4953 15.02513937    13
STARLINK-30140          
1 57458C 23107B   25280.79701389  .00010217  00000+0  75416-3 0  2802
2 57458  43.0018  89.9659 0001398 269.0180  23.9603 15.02510407    19
STARLINK-30185          
1 57459C 23107C   25280.79423611 -.00003660  00000+0 -27009-3 0  2803
2 57459  43.0022  89.9396 0001470 262.8442  33.1064 15.02538931    12
STARLINK-30077          
1 57460C 23107D   25280.79493056  .00007898  00000+0  58274-3 0  2808
2 57460  43.0020  89.8904 0001518 266.8036  50.9336 15.02528612    16
STARLINK-30229          
1 57461C 23107E   25280.78520833 -.00029793  00000+0 -21989-2 0  2804
2 57461  43.0021  90.1114 0001587 265.0914 287.9241 15.02554975    16
STARLINK-30088          
1 57462C 23107F   25280.79701389 -.00002287  00000+0 -16872-3 0  2808
2 57462  43.0015  89.8323 0001477 262.4761  84.5730 15.02538898    16
STARLINK-30091          
1 57463C 23107G   25280.79423611 -.00001668  00000+0 -12311-3 0  2804
2 57463  43.0019  89.7636 0001368 268.4105  99.6887 15.02530084    13
STARLINK-30116          
1 57465C 23107J   25280.79909722 -.00008611  00000+0 -63532-3 0  2804
2 57465  43.0017  89.7529 0001403 264.3248 124.0631 15.02545761    15
STARLINK-30092          
1 57467C 23107L   25280.79770833 -.00009299  00000+0 -68593-3 0  2800
2 57467  43.0016  89.6576 0001652 241.5447 181.3423 15.02555788    16
STARLINK-30039          
1 57468C 23107M   25280.79215278  .00010153  00000+0  74926-3 0  2804
2 57468  43.0017  89.6448 0001555 276.2899 134.5257 15.02518214    12
STARLINK-30171          
1 57469C 23107N   25280.79909722 -.00023061  00000+0 -17008-2 0  2800
2 57469  43.0018  89.5232 0001175 274.4604 210.0283 15.02577027    12
STARLINK-30186          
1 57470C 23107P   25280.79840278  .00009864  00000+0  72773-3 0  2806
2 57470  43.0019  89.5690 0001558 261.0081 201.6972 15.02529686    18
STARLINK-30190          
1 57471C 23107Q   25280.81298611  .00466740  00000+0  71555-2 0  2804
2 57471  42.9837  46.2950 0035034 338.5246  46.6188 15.52232419    19
STARLINK-30204          
1 57472C 23107R   25280.79701389  .00005567  00000+0  41072-3 0  2801
2 57472  43.0015  89.4870 0001356 267.0711 224.2314 15.02533664    19
STARLINK-30187          
1 57473C 23107S   25280.79423611  .00010718  00000+0  79055-3 0  2807
2 57473  43.0016  89.4514 0001369 265.4791 228.7146 15.02538116    19
STARLINK-30110          
1 57474C 23107T   25280.81229167  .00184480  00000+0  55052-2 0  2809
2 57474  42.9979  48.6073 0028170 323.7472 276.2428 15.33214059    18
STARLINK-30155          
1 57475C 23107U   25280.79423611  .00009919  00000+0  73196-3 0  2800
2 57475  43.0020  89.3316 0001576 273.4820 274.8856 15.02522872    19
STARLINK-30161          
1 57476C 23107V   25280.79284722 -.00002961  00000+0 -21846-3 0  2806
2 57476  43.0021  89.2971 0001462 261.9417 296.9652 15.02537686    13
STARLINK-30176          
1 57477C 23107W   25280.77479167 -.00003358  00000+0 -24778-3 0  2802
2 57477  43.0022  89.3661 0001432 262.3374 210.8178 15.02537918    12
STARLINK-30154          
1 57495C 23113A   25280.79840278  .00010884  00000+0  80299-3 0  2806
2 57495  43.0010 128.4596 0001356 263.7479 221.1665 15.02529590    10
STARLINK-30145          
1 57496C 23113B   25280.79701389 -.00002145  00000+0 -15828-3 0  2805
2 57496  43.0009 128.2650 0001330 259.9815 307.6696 15.02540226    14
